{"type": "FeatureCollection", "features": [ {"type": "Feature", "properties": {"norad_id": 62339, "name": "GPS BIII-7  (PRN 01)", "group": "gps-ops", "lat": 40.15229728104, "lon": 17.999983632629437, "alt_km": 20164.237325026195, "timestamp": "2025-12-14T22:38:41.017126+00:00", "meta": {"OBJECT_NAME": "GPS BIII-7  (PRN 01)", "OBJECT_ID": "2024-242A", "EPOCH": "2025-12-13T08:55:39.244800", "MEAN_MOTION": 2.00567973, "ECCENTRICITY": 0.00122972, "INCLINATION": 54.9234, "RA_OF_ASC_NODE": 341.714, "ARG_OF_PERICENTER": 344.9239, "MEAN_ANOMALY": 12.1981, "EPHEMERIS_TYPE": 0, "CLASSIFICATION_TYPE": "U", "NORAD_CAT_ID": 62339, "ELEMENT_SET_NO": 999, "REV_AT_EPOCH": 752, "BSTAR": 0, "MEAN_MOTION_DOT": -9.1e-07, "MEAN_MOTION_DDOT": 0}, "tle": {"line1": "1 62339U 24242A   25347.37198200 -.00000091  00000+0  00000+0 0  9997", "line2": "2 62339  54.9234 341.7140 0012297 344.9239  12.1981  2.00567973  7522"}}, "geometry": {"type": "Point", "coordinates": [17.999983632629437, 40.15229728104]}}, {"type": "Feature", "properties": {"norad_id": 64202, "name": "GPS BIII-8  (PRN 21)", "group": "gps-ops", "lat": -45.97027079214004, "lon": -95.27178414015908, "alt_km": 20182.082150147846, "timestamp": "2025-12-14T22:38:41.017138+00:00", "meta": {"OBJECT_NAME": "GPS BIII-8  (PRN 21)", "OBJECT_ID": "2025-116A", "EPOCH": "2025-12-14T02:46:13.653120", "MEAN_MOTION": 2.00558299, "ECCENTRICITY": 0.00056153, "INCLINATION": 55.1067, "RA_OF_ASC_NODE": 38.5851, "ARG_OF_PERICENTER": 308.147, "MEAN_ANOMALY": 55.2369, "EPHEMERIS_TYPE": 0, "CLASSIFICATION_TYPE": "U", "NORAD_CAT_ID": 64202, "ELEMENT_SET_NO": 999, "REV_AT_EPOCH": 416, "BSTAR": 0, "MEAN_MOTION_DOT": -9.6e-07, "MEAN_MOTION_DDOT": 0}, "tle": {"line1": "1 64202U 25116A   25348.11543580 -.00000096  00000+0  00000+0 0  9992", "line2": "2 64202  55.1067  38.5851 0005615 308.1470  55.2369  2.00558299  4161"}}, "geometry": {"type": "Point", "coordinates": [-95.27178414015908, -45.97027079214004]}}]}